OBJECT_NAME,OBJECT_ID,EPOCH,MEAN_MOTION,ECCENTRICITY,INCLINATION,RA_OF_ASC_NODE,ARG_OF_PERICENTER,MEAN_ANOMALY,EPHEMERIS_TYPE,CLASSIFICATION_TYPE,NORAD_CAT_ID,ELEMENT_SET_NO,REV_AT_EPOCH,BSTAR,MEAN_MOTION_DOT,MEAN_MOTION_DDOT
STARLINK-37310,2026-077T,2026-07-24T05:14:07.488672,15.33444628,.00017082,97.2863,75.9745,85.9666,274.1772,0,U,68679,999,1608,.75039572E-3,.24228E-3,0
STARLINK-37306,2026-077U,2026-07-24T05:02:23.057376,15.33443501,.00025015,97.2855,75.9862,84.1964,275.9563,0,U,68680,999,1608,.95487674E-3,.30879E-3,0
STARLINK-37307,2026-077V,2026-07-24T05:06:17.636832,15.33445515,.00015902,97.2861,75.9830,96.0429,264.0995,0,U,68681,999,1608,.86799599E-3,.28052E-3,0
STARLINK-37300,2026-077W,2026-07-24T04:46:43.033152,15.33452784,.00020136,97.2806,76.0077,112.0818,248.0639,0,U,68682,999,1608,.73631004E-3,.23777E-3,0
STARLINK-37304,2026-077X,2026-07-24T04:50:38.048928,15.33448640,.00018354,97.2843,75.9993,115.5180,244.6252,0,U,68683,999,1608,.75039933E-3,.24232E-3,0
STARLINK-37287,2026-077Y,2026-07-24T04:54:33.282432,15.33445828,.00031697,97.2854,75.9930,92.3044,267.8561,0,U,68684,999,1608,.91588666E-3,.29614E-3,0
STARLINK-36278,2026-077Z,2026-07-24T04:10:52.366944,15.33446833,.00027164,97.2864,78.9317,90.1512,270.0042,0,U,68685,999,1627,.84669355E-3,.27362E-3,0
STARLINK-37213,2026-077AA,2026-07-24T04:58:27.726240,15.33444926,.00017385,97.2859,75.9881,97.0478,263.0963,0,U,68686,999,1608,.94743424E-3,.30636E-3,0
STARLINK-37358,2026-081A,2026-07-24T03:18:40.062816,15.34378114,.00012907,53.1579,118.8928,88.2824,271.8326,0,U,68699,999,1565,.10524769E-2,.35326E-3,0
STARLINK-37334,2026-081B,2026-07-24T06:23:12.168384,15.34424900,.00010912,53.1573,118.2693,98.2172,261.8954,0,U,68700,999,1567,.1369678E-2,.46223E-3,0
STARLINK-36955,2026-081C,2026-07-24T00:04:59.796768,15.34414905,.00011388,53.1565,119.4738,113.7173,246.3949,0,U,68701,999,1563,.11155816E-2,.37522E-3,0
STARLINK-36275,2026-081D,2026-07-24T04:43:21.012672,15.34427766,.00009422,53.1573,118.5596,101.3540,258.7569,0,U,68702,999,1566,.11565927E-2,.38939E-3,0
STARLINK-36271,2026-081E,2026-07-24T04:40:20.402112,15.34372092,.00012905,53.1570,118.5356,61.5904,298.5228,0,U,68703,999,1566,.94911137E-3,.31799E-3,0
STARLINK-37356,2026-081F,2026-07-24T01:29:42.156672,15.34403032,.00010812,53.1569,119.1286,87.5919,272.5207,0,U,68704,999,1564,.81742388E-3,.27345E-3,0
STARLINK-35369,2026-081G,2026-07-24T04:34:15.672288,15.34430449,.00012534,53.1574,118.5115,59.1054,301.0072,0,U,68705,999,1566,.11815389E-2,.39795E-3,0
STARLINK-37319,2026-081H,2026-07-24T01:17:35.135232,15.34401239,.00011056,53.1574,119.0959,90.1616,269.9513,0,U,68706,999,1564,.50628885E-3,.16769E-3,0
STARLINK-37112,2026-081J,2026-07-24T04:31:13.856448,15.34417696,.00009879,53.1561,118.5052,100.8523,259.2591,0,U,68707,999,1566,.93313207E-3,.31301E-3,0
STARLINK-37340,2026-081K,2026-07-24T06:02:01.061952,15.34383213,.00010562,53.1568,118.1785,127.2192,232.8907,0,U,68708,999,1567,.10742532E-2,.36074E-3,0
STARLINK-37303,2026-081L,2026-07-24T01:14:33.045504,15.34400022,.00010248,53.1576,119.0652,99.7005,260.4113,0,U,68709,999,1564,.74145287E-3,.24758E-3,0
STARLINK-36859,2026-081M,2026-07-24T01:11:31.312608,15.34400188,.00010907,53.1570,119.0521,96.3995,263.7132,0,U,68710,999,1564,.65969354E-3,.21978E-3,0
STARLINK-37320,2026-081N,2026-07-24T01:08:29.554656,15.34411583,.00012365,53.1579,119.0378,74.6281,285.4858,0,U,68711,999,1564,.10255784E-2,.34447E-3,0
STARLINK-37318,2026-081P,2026-07-24T04:13:02.921664,15.34417945,.00010547,53.1575,118.4160,93.8041,266.3082,0,U,68712,999,1566,.96538939E-3,.32401E-3,0
STARLINK-37305,2026-081Q,2026-07-24T04:10:01.155072,15.34423795,.0001075,53.1579,118.3950,84.7229,275.3896,0,U,68713,999,1566,.13045855E-2,.43993E-3,0
STARLINK-37225,2026-081R,2026-07-24T04:06:59.537088,15.34416093,.0001006,53.1583,118.3909,82.3543,277.7574,0,U,68714,999,1566,.15455989E-2,.52235E-3,0
STARLINK-37322,2026-081S,2026-07-24T00:56:22.304256,15.34405709,.00009777,53.1573,118.9755,102.2361,257.8751,0,U,68715,999,1564,.7495414E-3,.25037E-3,0
STARLINK-36337,2026-081T,2026-07-24T04:00:56.009952,15.34415048,.00009733,53.1582,118.3737,65.2799,294.8305,0,U,68716,999,1566,.14727022E-2,.49736E-3,0
STARLINK-36685,2026-081U,2026-07-24T03:57:54.110304,15.34412102,.00010279,53.1583,118.3433,86.5089,273.6032,0,U,68717,999,1566,.95416533E-3,.32012E-3,0
STARLINK-36684,2026-081V,2026-07-24T03:54:52.382592,15.34415894,.00012671,53.1588,118.3275,78.9845,281.1300,0,U,68718,999,1566,.11064559E-2,.37212E-3,0
STARLINK-36686,2026-081W,2026-07-24T00:41:13.321824,15.34400860,.00012505,53.1588,118.9108,76.2350,283.8792,0,U,68719,999,1564,.54341824E-3,.18029E-3,0
STARLINK-36681,2026-081X,2026-07-24T02:05:55.704192,15.34414989,.00014105,53.1582,118.5680,91.5832,268.5332,0,U,68720,999,1565,.98040571E-3,.3291E-3,0
STARLINK-36680,2026-081Y,2026-07-24T00:38:11.682240,15.34397986,.00014419,53.1592,118.8957,98.8694,261.2472,0,U,68721,999,1564,.83716308E-3,.28013E-3,0
STARLINK-37271,2026-081Z,2026-07-24T03:42:45.160704,15.34416096,.0001398,53.1584,118.2718,92.1891,267.9271,0,U,68722,999,1566,.13760248E-2,.46427E-3,0
STARLINK-37273,2026-081AA,2026-07-24T03:51:50.523552,15.34418368,.00011577,53.1584,118.3237,90.2055,269.9081,0,U,68723,999,1566,.1491622E-2,.50389E-3,0
STARLINK-37274,2026-081AB,2026-07-24T03:36:41.583456,15.34409216,.00012655,53.1594,118.2437,83.5546,276.5600,0,U,68724,999,1566,.89001424E-3,.29823E-3,0
STARLINK-37275,2026-081AC,2026-07-24T01:56:50.794944,15.34397458,.00013601,53.1590,118.5445,85.0115,275.1043,0,U,68725,999,1565,.10613764E-2,.35652E-3,0
STARLINK-37272,2026-081AD,2026-07-24T01:59:52.323936,15.34408266,.00012398,53.1582,118.5353,74.8846,285.2294,0,U,68726,999,1565,.10462443E-2,.35148E-3,0
STARLINK-37270,2026-081AE,2026-07-24T03:27:36.607680,15.34405468,.00011927,53.1589,118.2196,90.5916,269.5223,0,U,68727,999,1566,.10672252E-2,.3586E-3,0
STARLINK-37242,2026-082A,2026-07-24T03:41:02.687712,15.33456739,.00032116,97.2848,68.1301,70.1739,289.9850,0,U,68728,999,1536,.38984989E-3,.12538E-3,0
STARLINK-37264,2026-082B,2026-07-24T04:08:27.482784,15.33435373,.00029229,97.2873,68.1007,68.8113,291.3442,0,U,68729,999,1536,.7810393E-3,.25219E-3,0
STARLINK-37230,2026-082C,2026-07-24T03:25:24.318048,15.33396583,.00031395,97.2875,68.1430,75.2343,284.9247,0,U,68730,999,1536,.60233312E-3,.19393E-3,0
STARLINK-37202,2026-082D,2026-07-24T04:12:21.841920,15.33454917,.00022722,97.2809,68.1033,106.6135,253.5357,0,U,68731,999,1536,.72944141E-3,.23556E-3,0
STARLINK-37167,2026-082E,2026-07-24T04:16:17.348448,15.33442626,.00030818,97.2862,68.0931,72.9394,287.2187,0,U,68732,999,1536,.11330292E-2,.36683E-3,0
STARLINK-37278,2026-082F,2026-07-24T04:20:12.101568,15.33456408,.00028318,97.2843,68.2421,78.5572,281.5989,0,U,68733,999,1537,.78653325E-3,.25414E-3,0
STARLINK-37349,2026-082G,2026-07-24T04:39:46.403712,15.33444274,.00020646,97.2857,68.2269,86.4942,273.6537,0,U,68734,999,1537,.45438368E-3,.14623E-3,0
STARLINK-37339,2026-082H,2026-07-24T04:35:51.369792,15.33453053,.0001794,97.2858,68.2285,96.5619,263.5828,0,U,68735,999,1537,.94478359E-3,.30558E-3,0
STARLINK-37327,2026-082J,2026-07-24T07:08:33.141984,15.33452758,.00018278,97.2860,68.2386,92.0623,268.0830,0,U,68736,999,1538,.52778806E-3,.17007E-3,0
STARLINK-37348,2026-082K,2026-07-24T03:48:52.810848,15.33460269,.0003391,97.2838,68.1196,76.9747,283.1874,0,U,68737,999,1536,.82917359E-3,.26805E-3,0
STARLINK-37331,2026-082L,2026-07-24T03:52:47.761824,15.33458994,.00028082,97.2828,68.1163,81.1271,279.0290,0,U,68738,999,1536,.69339515E-3,.22389E-3,0
STARLINK-37338,2026-082M,2026-07-24T03:44:57.787296,15.33454068,.00028208,97.2827,68.1248,89.7943,270.3623,0,U,68739,999,1536,.72971288E-3,.23565E-3,0
STARLINK-37314,2026-082N,2026-07-24T03:33:13.235904,15.33455465,.00038284,97.2845,68.1348,72.9982,287.1681,0,U,68740,999,1536,.56683221E-3,.18278E-3,0
STARLINK-36314,2026-082P,2026-07-24T05:38:29.480352,15.33433122,.00018135,97.2859,68.1725,79.2978,280.8469,0,U,68741,999,1537,.46344325E-3,.14911E-3,0
STARLINK-37351,2026-082Q,2026-07-24T03:37:07.951008,15.33440716,.0002966,97.2863,68.1320,77.6988,282.4587,0,U,68742,999,1536,.9783231E-3,.3164E-3,0
STARLINK-37354,2026-082R,2026-07-24T04:28:00.666048,15.33438897,.00016649,97.2854,68.2381,86.2535,273.8898,0,U,68743,999,1537,.38601352E-3,.12405E-3,0
STARLINK-37344,2026-082S,2026-07-24T04:55:26.026176,15.33442059,.00021807,97.2849,68.2117,88.5713,271.5779,0,U,68744,999,1537,.58453292E-3,.18842E-3,0
STARLINK-37267,2026-082T,2026-07-24T04:24:07.845696,15.33387731,.00029752,97.2871,68.2394,77.3713,282.7862,0,U,68745,999,1537,.22857884E-3,.7299E-4,0
STARLINK-37347,2026-082U,2026-07-24T05:03:15.717312,15.33440661,.00018902,97.2857,68.2041,92.8708,267.2751,0,U,68746,999,1537,.7940215E-3,.25643E-3,0
STARLINK-37268,2026-082V,2026-07-24T04:31:56.662464,15.33450508,.00023409,97.2863,68.2313,79.3859,280.7648,0,U,68747,999,1537,.97524128E-3,.31548E-3,0
STARLINK-37325,2026-082W,2026-07-24T05:30:39.322656,15.33436581,.00019928,97.2855,68.1762,91.2859,268.8612,0,U,68748,999,1537,.7727671E-3,.24949E-3,0
STARLINK-37324,2026-082X,2026-07-24T04:43:41.155104,15.33441112,.00016304,97.2858,68.2246,107.0962,253.0460,0,U,68749,999,1537,.764176E-3,.24673E-3,0
STARLINK-37350,2026-082Y,2026-07-24T04:18:03.986784,15.33461866,.00028482,97.2845,67.1759,93.9638,266.1931,0,U,68750,999,1530,.82626211E-3,.26711E-3,0
STARLINK-37277,2026-082Z,2026-07-24T04:51:31.854528,15.33441054,.00018978,97.2865,68.2146,105.0442,255.1010,0,U,68751,999,1537,.5455046E-3,.17575E-3,0
STARLINK-37342,2026-082AA,2026-07-24T04:47:36.390336,15.33446867,.00023141,97.2857,68.2179,78.4354,281.7148,0,U,68752,999,1537,.69435547E-3,.2241E-3,0
STARLINK-37168,2026-086A,2026-07-24T01:15:41.242752,15.33453324,.00022085,97.2831,241.4011,121.1484,238.9975,0,U,68766,999,1473,.66773288E-3,.2155E-3,0
STARLINK-37174,2026-086B,2026-07-24T02:45:44.335008,15.33459220,.00022606,97.2825,241.3193,103.7898,256.3597,0,U,68767,999,1473,.76984223E-3,.24873E-3,0
